GLOBALSTAR M094 [+]     
1 39074U 13005C   23289.14312172 -.00000095  00000+0  51098-4 0  9998
2 39074  51.9948 239.5220 0000749  52.2684 307.8250 12.62268454495330
GLOBALSTAR M096 [+]     
1 39075U 13005D   23289.31461494 -.00000093  00000+0  60173-4 0  9992
2 39075  52.0068 287.0389 0000605  40.8524 319.2388 12.62264922494274
GLOBALSTAR M078 [+]     
1 39076U 13005E   23289.60474294 -.00000153  00000+0 -27522-3 0  9995
2 39076  51.9903  11.4915 0000486 256.4619 103.6193 12.62260033492931
GLOBALSTAR M095 [+]     
1 39077U 13005F   23289.47308754 -.00000080  00000+0  13294-3 0  9997
2 39077  51.9828   9.3943 0000270 350.7213   9.3649 12.62269484492773
GLOBALSTAR M087 [+]     
1 52888U 22064A   23289.46454892 -.00000066  00000+0  11935-3 0  9995
2 52888  51.9775 341.7056 0009965 103.3043 256.8969 13.37555205 64771
